{
    "links": {
        "self": "http://www.neowsapp.com/rest/v1/neo/54087732?api_key=iIulBulltgU6a56xZRHN4H3l9WmuAYTsLGpBGhQ2"
    },
    "id": "54087732",
    "neo_reference_id": "54087732",
    "name": "(2020 VP2)",
    "designation": "2020 VP2",
    "nasa_jpl_url": "http://ssd.jpl.nasa.gov/sbdb.cgi?sstr=54087732",
    "absolute_magnitude_h": 25.933,
    "estimated_diameter": {
        "kilometers": {
            "estimated_diameter_min": 0.0172963704,
            "estimated_diameter_max": 0.0386758599
        },
        "meters": {
            "estimated_diameter_min": 17.2963703811,
            "estimated_diameter_max": 38.6758599362
        },
        "miles": {
            "estimated_diameter_min": 0.010747463,
            "estimated_diameter_max": 0.0240320578
        },
        "feet": {
            "estimated_diameter_min": 56.7466238012,
            "estimated_diameter_max": 126.8893083131
        }
    },
    "is_potentially_hazardous_asteroid": false,
    "close_approach_data": [
        {
            "close_approach_date": "2020-11-16",
            "close_approach_date_full": "2020-Nov-16 18:39",
            "epoch_date_close_approach": 1605551940000,
            "relative_velocity": {
                "kilometers_per_second": "8.7002795598",
                "kilometers_per_hour": "31321.0064153466",
                "miles_per_hour": "19461.655347358"
            },
            "miss_distance": {
                "astronomical": "0.0843514187",
                "lunar": "32.8127018743",
                "kilometers": "12618792.568998169",
                "miles": "7840954.1125019722"
            },
            "orbiting_body": "Earth"
        }
    ],
    "orbital_data": {
        "orbit_id": "3",
        "orbit_determination_date": "2020-11-16 05:23:00",
        "first_observation_date": "2020-11-11",
        "last_observation_date": "2020-11-16",
        "data_arc_in_days": 5,
        "observations_used": 19,
        "orbit_uncertainty": "8",
        "minimum_orbit_intersection": ".0840086",
        "jupiter_tisserand_invariant": "5.013",
        "epoch_osculation": "2459165.5",
        "eccentricity": ".1949677273111858",
        "semi_major_axis": "1.276419073185116",
        "inclination": "15.55102695268298",
        "ascending_node_longitude": "48.63484528556833",
        "orbital_period": "526.730364048433",
        "perihelion_distance": "1.027558547389564",
        "perihelion_argument": "45.71000566443318",
        "aphelion_distance": "1.525279598980669",
        "perihelion_time": "2459209.871258571785",
        "mean_anomaly": "329.6739467171218",
        "mean_motion": ".6834616429420384",
        "equinox": "J2000",
        "orbit_class": {
            "orbit_class_type": "AMO",
            "orbit_class_description": "Near-Earth asteroid orbits similar to that of 1221 Amor",
            "orbit_class_range": "1.017 AU < q (perihelion) < 1.3 AU"
        }
    },
    "is_sentry_object": false
}